IRIDIUM 136             
1 42962U 17061H   24275.52299114  .00000179  00000+0  56798-4 0  9996
2 42962  86.3909 285.8645 0002117  92.6193 267.5245 14.34219123365442
